STARLINK-1633
1 46171U 20057BG  26092.83335647  .00113682  00000+0  11237-2 0  9997
2 46171  53.0400 141.0779 0008884  23.4542  58.8631 15.65008252  5820
STARLINK-1653
1 46352U 20062AD  26092.83335647  .00172013  00000+0  16817-2 0  9996
2 46352  53.0423 204.4527 0011415 341.6508 346.1854 15.65034028  5866
